GLOBALSTAR M068         
1 32266U 07048D   26074.10054651 -.00000113  00000+0 -49023-4 0  9997
2 32266  51.9879 196.4077 0001153  54.3585 116.8495 12.62842159851787
GLOBALSTAR M079         
1 37188U 10054A   26074.13426221 -.00000101  00000+0  17684-4 0  9999
2 37188  52.0060  34.9789 0000543 106.7114 267.2508 12.62263942710672
GLOBALSTAR M074         
1 37189U 10054B   26074.16050910 -.00000110  00000+0 -35892-4 0  9993
2 37189  52.0037  34.1799 0000245  74.9266 297.7352 12.62266342711283
GLOBALSTAR M076         
1 37190U 10054C   26074.20705912 -.00000098  00000+0  34898-4 0  9998
2 37190  52.0050  34.2327 0000307 122.7313 341.7559 12.62270639711005
GLOBALSTAR M077         
1 37191U 10054D   26073.95082557 -.00000093  00000+0 -27251-3 0  9993
2 37191  51.9988  58.5609 0000821 147.9377 226.5857 11.68156517710133
GLOBALSTAR M075         
1 37192U 10054E   26074.29940119 -.00000099  00000+0  28639-4 0  9996
2 37192  51.9940  76.0583 0000358  91.8827  12.5463 12.62264956710082
GLOBALSTAR M073         
1 37193U 10054F   26074.30993845 -.00000097  00000+0  39770-4 0  9999
2 37193  52.0089 350.0566 0000592 100.2762  51.0648 12.62265260712071
GLOBALSTAR M083         
1 37739U 11033A   26074.32721744 -.00000068  00000+0  19759-3 0  9994
2 37739  51.9861 298.3628 0000864 100.4665  71.0542 12.62267960681093
GLOBALSTAR M088         
1 37740U 11033B   26073.63293848 -.00000110  00000+0 -36751-4 0  9999
2 37740  52.0205 206.6730 0000734 106.9659 266.6961 12.62262281676558
GLOBALSTAR M091         
1 37741U 11033C   26073.76020321 -.00000110  00000+0 -33780-4 0  9997
2 37741  51.9989 169.3912 0000770 108.7938  63.9108 12.62270388677350
GLOBALSTAR M085         
1 37742U 11033D   26074.28036177 -.00000092  00000+0  68469-4 0  9992
2 37742  52.0110 119.0171 0000668 111.7533 326.0737 12.62269771677938
GLOBALSTAR M081         
1 37743U 11033E   26074.30705818 -.00000096  00000+0  42514-4 0  9998
2 37743  51.9947 121.4794 0000502 130.5941 308.4637 12.62262864678088
GLOBALSTAR M089         
1 37744U 11033F   26074.25292758 -.00000085  00000+0  10320-3 0  9994
2 37744  51.9924  75.8193 0000044 143.2358 229.8191 12.62264912678923
GLOBALSTAR M084         
1 38040U 11080A   26073.94935935 -.00000073  00000+0  16989-3 0  9996
2 38040  52.0016 304.1790 0000493  86.6854 286.0899 12.62265664656861
GLOBALSTAR M080         
1 38041U 11080B   26073.94075393 -.00000067  00000+0  20636-3 0  9997
2 38041  52.0069 305.8917 0001187  74.8217  28.3393 12.62267385656983
GLOBALSTAR M082         
1 38042U 11080C   26073.77793462 -.00000075  00000+0  16046-3 0  9992
2 38042  52.0063 261.8767 0001153  87.5181 285.3734 12.62268501657678
GLOBALSTAR M092         
1 38043U 11080D   26074.06843347 -.00000090  00000+0  75810-4 0  9996
2 38043  52.0115 351.3825 0000559  75.5699 297.9229 12.62264586656167
GLOBALSTAR M090         
1 38044U 11080E   26074.23534100 -.00000084  00000+0  10945-3 0  9990
2 38044  52.0108 254.4096 0000933 101.8680  69.5939 12.62272121657843
GLOBALSTAR M086         
1 38045U 11080F   26074.25828926 -.00000074  00000+0  16741-3 0  9994
2 38045  51.9888 254.4230 0001107 160.4500  10.3281 12.62284167657794
GLOBALSTAR M097         
1 39072U 13005A   26073.69545656 -.00000115  00000+0 -64640-4 0  9996
2 39072  52.0041 170.9733 0000801 120.0725 240.0221 12.62265667604971
GLOBALSTAR M093         
1 39073U 13005B   26073.66932959 -.00000110  00000+0 -37146-4 0  9996
2 39073  52.0101 164.3660 0000938 125.1850 234.9105 12.62263923604922
GLOBALSTAR M094         
1 39074U 13005C   26074.30298644 -.00000100  00000+0  20716-4 0  9998
2 39074  51.9952  76.6476 0000529 117.8831 242.2090 12.62267182606612
GLOBALSTAR M096         
1 39075U 13005D   26073.84106330 -.00000096  00000+0  44082-4 0  9993
2 39075  52.0062 126.7824 0000656 116.7613 243.3321 12.62263717605470
GLOBALSTAR M078         
1 39076U 13005E   26074.05190221 -.00000111  00000+0 -40003-4 0  9998
2 39076  51.9866 210.2783 0001525  79.8701 280.2337 12.62276083604125
GLOBALSTAR M095         
1 39077U 13005F   26074.07852487 -.00000115  00000+0 -61242-4 0  9992
2 39077  52.0071 207.6685 0001251 103.9124 256.1882 12.62276269603987
GLOBALSTAR M087         
1 52888U 22064A   26073.93357702 -.00000084  00000+0  11188-3 0  9993
2 52888  52.0027 349.4052 0000812  88.9597 271.1362 12.62267165179235
